KBOS 042254Z 23008KT 10SM SCT090 BKN250 M02/M19 A3026 RMK AO2 SLP245 T10171189
KPWM 042251Z 21004KT 10SM SCT080 BKN095 BKN110 OVC200 M03/M11 A3024 RMK AO2 SLP241 T10331111
KPVD 042251Z 26004KT 10SM FEW095 OVC110 M02/M15 A3027 RMK AO2 SLP250 T10171150
KBDL 042251Z 14007KT 10SM FEW055 OVC060 M03/M14 A3024 RMK AO2 SLP241 T10281139 $
KBTV 042254Z 35007KT 5SM -SN BKN037 OVC070 M09/M14 A3028 RMK AO2 SNB35 SLP264 P0000 T10891139
KMHT 042253Z 23003KT 10SM SCT075 OVC090 M02/M18 A3021 RMK AO2 SLP253 T10221183
