KBOS 041054Z 32007KT 10SM CLR M11/M22 A3035 RMK AO2 SLP278 T11111222
KPWM 041051Z 29003KT 10SM CLR M17/M24 A3034 RMK AO2 SLP276 T11721239